[{"OBJECT_NAME":"ONEWEB-0398","OBJECT_ID":"2021-132K","EPOCH":"2026-01-22T07:57:37.443168","MEAN_MOTION":13.11415498,"ECCENTRICITY":0.00018784,"INCLINATION":87.8827,"RA_OF_ASC_NODE":50.0824,"ARG_OF_PERICENTER":106.8552,"MEAN_ANOMALY":253.2782,"EPHEMERIS_TYPE":0,"CLASSIFICATION_TYPE":"U","NORAD_CAT_ID":50478,"ELEMENT_SET_NO":999,"REV_AT_EPOCH":19649,"BSTAR":-0.0015274092,"MEAN_MOTION_DOT":-5.29e-6,"MEAN_MOTION_DDOT":0},{"OBJECT_NAME":"ONEWEB-0399","OBJECT_ID":"2021-132L","EPOCH":"2026-01-22T02:08:30.679872","MEAN_MOTION":13.11416475,"ECCENTRICITY":0.00023198,"INCLINATION":87.8818,"RA_OF_ASC_NODE":50.1425,"ARG_OF_PERICENTER":88.7932,"MEAN_ANOMALY":271.3461,"EPHEMERIS_TYPE":0,"CLASSIFICATION_TYPE":"U","NORAD_CAT_ID":50479,"ELEMENT_SET_NO":999,"REV_AT_EPOCH":19645,"BSTAR":-0.00090510874,"MEAN_MOTION_DOT":-3.08e-6,"MEAN_MOTION_DDOT":0},{"OBJECT_NAME":"ONEWEB-0400","OBJECT_ID":"2021-132M","EPOCH":"2026-01-21T20:53:43.106784","MEAN_MOTION":13.186857,"ECCENTRICITY":0.00017693,"INCLINATION":87.9195,"RA_OF_ASC_NODE":4.4897,"ARG_OF_PERICENTER":91.392,"MEAN_ANOMALY":268.7414,"EPHEMERIS_TYPE":0,"CLASSIFICATION_TYPE":"U","NORAD_CAT_ID":50480,"ELEMENT_SET_NO":999,"REV_AT_EPOCH":20232,"BSTAR":5.0020969e-5,"MEAN_MOTION_DOT":3.3e-7,"MEAN_MOTION_DDOT":0},{"OBJECT_NAME":"ONEWEB-0401","OBJECT_ID":"2021-132N","EPOCH":"2026-01-22T05:14:52.650816","MEAN_MOTION":13.18687742,"ECCENTRICITY":0.00017597,"INCLINATION":87.9195,"RA_OF_ASC_NODE":4.4162,"ARG_OF_PERICENTER":78.3232,"MEAN_ANOMALY":281.8097,"EPHEMERIS_TYPE":0,"CLASSIFICATION_TYPE":"U","NORAD_CAT_ID":50481,"ELEMENT_SET_NO":999,"REV_AT_EPOCH":20237,"BSTAR":-0.00019939127,"MEAN_MOTION_DOT":-6.6e-7,"MEAN_MOTION_DDOT":0},{"OBJECT_NAME":"ONEWEB-0402","OBJECT_ID":"2021-132P","EPOCH":"2026-01-22T04:22:37.974144","MEAN_MOTION":13.18685773,"ECCENTRICITY":0.00017644,"INCLINATION":87.9193,"RA_OF_ASC_NODE":4.416,"ARG_OF_PERICENTER":67.1352,"MEAN_ANOMALY":292.9966,"EPHEMERIS_TYPE":0,"CLASSIFICATION_TYPE":"U","NORAD_CAT_ID":50482,"ELEMENT_SET_NO":999,"REV_AT_EPOCH":20239,"BSTAR":-0.00012060224,"MEAN_MOTION_DOT":-3.5e-7,"MEAN_MOTION_DDOT":0},{"OBJECT_NAME":"ONEWEB-0403","OBJECT_ID":"2021-132Q","EPOCH":"2026-01-22T04:58:16.797504","MEAN_MOTION":13.18686296,"ECCENTRICITY":0.00019009,"INCLINATION":87.9196,"RA_OF_ASC_NODE":4.4329,"ARG_OF_PERICENTER":86.1587,"MEAN_ANOMALY":273.9763,"EPHEMERIS_TYPE":0,"CLASSIFICATION_TYPE":"U","NORAD_CAT_ID":50483,"ELEMENT_SET_NO":999,"REV_AT_EPOCH":20235,"BSTAR":-9.038951e-5,"MEAN_MOTION_DOT":-2.3e-7,"MEAN_MOTION_DDOT":0},{"OBJECT_NAME":"ONEWEB-0404","OBJECT_ID":"2021-132R","EPOCH":"2026-01-22T07:11:15.550656","MEAN_MOTION":13.11416888,"ECCENTRICITY":0.00021978,"INCLINATION":87.8818,"RA_OF_ASC_NODE":50.1094,"ARG_OF_PERICENTER":95.2313,"MEAN_ANOMALY":264.9066,"EPHEMERIS_TYPE":0,"CLASSIFICATION_TYPE":"U","NORAD_CAT_ID":50484,"ELEMENT_SET_NO":999,"REV_AT_EPOCH":19657,"BSTAR":0.0012418724,"MEAN_MOTION_DOT":4.53e-6,"MEAN_MOTION_DDOT":0},{"OBJECT_NAME":"ONEWEB-0405","OBJECT_ID":"2021-132S","EPOCH":"2026-01-22T05:19:39.249984","MEAN_MOTION":13.18686235,"ECCENTRICITY":0.00018962,"INCLINATION":87.9198,"RA_OF_ASC_NODE":4.414,"ARG_OF_PERICENTER":76.4927,"MEAN_ANOMALY":283.6416,"EPHEMERIS_TYPE":0,"CLASSIFICATION_TYPE":"U","NORAD_CAT_ID":50485,"ELEMENT_SET_NO":999,"REV_AT_EPOCH":20275,"BSTAR":-6.8322538e-5,"MEAN_MOTION_DOT":-1.4e-7,"MEAN_MOTION_DDOT":0},{"OBJECT_NAME":"ONEWEB-0406","OBJECT_ID":"2021-132T","EPOCH":"2026-01-22T05:05:24.221760","MEAN_MOTION":13.18685479,"ECCENTRICITY":0.00021772,"INCLINATION":87.9198,"RA_OF_ASC_NODE":4.4415,"ARG_OF_PERICENTER":95.3785,"MEAN_ANOMALY":264.7596,"EPHEMERIS_TYPE":0,"CLASSIFICATION_TYPE":"U","NORAD_CAT_ID":50486,"ELEMENT_SET_NO":999,"REV_AT_EPOCH":20238,"BSTAR":-0.00016948958,"MEAN_MOTION_DOT":-5.4e-7,"MEAN_MOTION_DDOT":0},{"OBJECT_NAME":"ONEWEB-0407","OBJECT_ID":"2021-132U","EPOCH":"2026-01-22T04:55:53.842656","MEAN_MOTION":13.18686442,"ECCENTRICITY":0.00016706,"INCLINATION":87.9197,"RA_OF_ASC_NODE":4.426,"ARG_OF_PERICENTER":81.7735,"MEAN_ANOMALY":278.3587,"EPHEMERIS_TYPE":0,"CLASSIFICATION_TYPE":"U","NORAD_CAT_ID":50487,"ELEMENT_SET_NO":999,"REV_AT_EPOCH":20232,"BSTAR":0.00014579544,"MEAN_MOTION_DOT":7.0e-7,"MEAN_MOTION_DDOT":0},{"OBJECT_NAME":"ONEWEB-0409","OBJECT_ID":"2021-132V","EPOCH":"2026-01-22T01:39:13.525920","MEAN_MOTION":13.11416324,"ECCENTRICITY":0.00021164,"INCLINATION":87.8835,"RA_OF_ASC_NODE":50.1308,"ARG_OF_PERICENTER":101.395,"MEAN_ANOMALY":258.7415,"EPHEMERIS_TYPE":0,"CLASSIFICATION_TYPE":"U","NORAD_CAT_ID":50488,"ELEMENT_SET_NO":999,"REV_AT_EPOCH":19643,"BSTAR":0.0012976229,"MEAN_MOTION_DOT":4.73e-6,"MEAN_MOTION_DDOT":0},{"OBJECT_NAME":"ONEWEB-0412","OBJECT_ID":"2021-132W","EPOCH":"2026-01-22T04:39:15.741216","MEAN_MOTION":13.18685731,"ECCENTRICITY":0.00018204,"INCLINATION":87.9198,"RA_OF_ASC_NODE":4.442,"ARG_OF_PERICENTER":74.5093,"MEAN_ANOMALY":285.624,"EPHEMERIS_TYPE":0,"CLASSIFICATION_TYPE":"U","NORAD_CAT_ID":50489,"ELEMENT_SET_NO":999,"REV_AT_EPOCH":20241,"BSTAR":-3.471459e-5,"MEAN_MOTION_DOT":-1.0e-8,"MEAN_MOTION_DDOT":0},{"OBJECT_NAME":"ONEWEB-0413","OBJECT_ID":"2021-132X","EPOCH":"2026-01-22T04:46:23.419488","MEAN_MOTION":13.18687908,"ECCENTRICITY":0.00016536,"INCLINATION":87.9189,"RA_OF_ASC_NODE":4.4498,"ARG_OF_PERICENTER":75.3573,"MEAN_ANOMALY":284.7742,"EPHEMERIS_TYPE":0,"CLASSIFICATION_TYPE":"U","NORAD_CAT_ID":50490,"ELEMENT_SET_NO":999,"REV_AT_EPOCH":20235,"BSTAR":5.28662e-7,"MEAN_MOTION_DOT":1.3e-7,"MEAN_MOTION_DDOT":0},{"OBJECT_NAME":"ONEWEB-0414","OBJECT_ID":"2021-132Y","EPOCH":"2026-01-22T04:25:01.132896","MEAN_MOTION":13.18685858,"ECCENTRICITY":0.00019246,"INCLINATION":87.9197,"RA_OF_ASC_NODE":4.4203,"ARG_OF_PERICENTER":79.5994,"MEAN_ANOMALY":280.5355,"EPHEMERIS_TYPE":0,"CLASSIFICATION_TYPE":"U","NORAD_CAT_ID":50491,"ELEMENT_SET_NO":999,"REV_AT_EPOCH":20238,"BSTAR":-3.097786e-5,"MEAN_MOTION_DOT":1.0e-8,"MEAN_MOTION_DDOT":0},{"OBJECT_NAME":"ONEWEB-0417","OBJECT_ID":"2021-132Z","EPOCH":"2026-01-22T04:36:53.151840","MEAN_MOTION":13.18686345,"ECCENTRICITY":0.00020111,"INCLINATION":87.9186,"RA_OF_ASC_NODE":4.4504,"ARG_OF_PERICENTER":87.7907,"MEAN_ANOMALY":272.3455,"EPHEMERIS_TYPE":0,"CLASSIFICATION_TYPE":"U","NORAD_CAT_ID":50492,"ELEMENT_SET_NO":999,"REV_AT_EPOCH":20236,"BSTAR":0.00012665308,"MEAN_MOTION_DOT":6.3e-7,"MEAN_MOTION_DDOT":0},{"OBJECT_NAME":"ONEWEB-0418","OBJECT_ID":"2021-132AA","EPOCH":"2026-01-22T04:50:57.169248","MEAN_MOTION":13.18686376,"ECCENTRICITY":0.00022431,"INCLINATION":87.9195,"RA_OF_ASC_NODE":4.4342,"ARG_OF_PERICENTER":91.568,"MEAN_ANOMALY":268.571,"EPHEMERIS_TYPE":0,"CLASSIFICATION_TYPE":"U","NORAD_CAT_ID":50493,"ELEMENT_SET_NO":999,"REV_AT_EPOCH":20242,"BSTAR":7.9526423e-5,"MEAN_MOTION_DOT":4.4e-7,"MEAN_MOTION_DDOT":0},{"OBJECT_NAME":"ONEWEB-0419","OBJECT_ID":"2021-132AB","EPOCH":"2026-01-22T05:17:16.507680","MEAN_MOTION":13.18685893,"ECCENTRICITY":0.00019276,"INCLINATION":87.9199,"RA_OF_ASC_NODE":4.4306,"ARG_OF_PERICENTER":94.4583,"MEAN_ANOMALY":265.677,"EPHEMERIS_TYPE":0,"CLASSIFICATION_TYPE":"U","NORAD_CAT_ID":50494,"ELEMENT_SET_NO":999,"REV_AT_EPOCH":20234,"BSTAR":7.337679e-6,"MEAN_MOTION_DOT":1.6e-7,"MEAN_MOTION_DDOT":0}]
