ONEWEB-0398             
1 50478U 21132K   26022.33168337 -.00000529  00000+0 -15274-2 0  9997
2 50478  87.8827  50.0824 0001878 106.8552 253.2782 13.11415498196491
ONEWEB-0399             
1 50479U 21132L   26022.08924398 -.00000308  00000+0 -90511-3 0  9990
2 50479  87.8818  50.1425 0002319  88.7932 271.3461 13.11416475196458
ONEWEB-0400             
1 50480U 21132M   26021.87063781  .00000033  00000+0  50021-4 0  9994
2 50480  87.9195   4.4897 0001769  91.3920 268.7414 13.18685700202327
ONEWEB-0401             
1 50481U 21132N   26022.21866494 -.00000066  00000+0 -19939-3 0  9996
2 50481  87.9195   4.4162 0001759  78.3232 281.8097 13.18687742202379
ONEWEB-0402             
1 50482U 21132P   26022.18238396 -.00000035  00000+0 -12060-3 0  9991
2 50482  87.9193   4.4160 0001764  67.1352 292.9966 13.18685773202393
ONEWEB-0403             
1 50483U 21132Q   26022.20713886 -.00000023  00000+0 -90390-4 0  9997
2 50483  87.9196   4.4329 0001900  86.1587 273.9763 13.18686296202358
ONEWEB-0404             
1 50484U 21132R   26022.29948554  .00000453  00000+0  12419-2 0  9998
2 50484  87.8818  50.1094 0002197  95.2313 264.9066 13.11416888196576
ONEWEB-0405             
1 50485U 21132S   26022.22198206 -.00000014  00000+0 -68323-4 0  9995
2 50485  87.9198   4.4140 0001896  76.4927 283.6416 13.18686235202757
ONEWEB-0406             
1 50486U 21132T   26022.21208590 -.00000054  00000+0 -16949-3 0  9993
2 50486  87.9198   4.4415 0002177  95.3785 264.7596 13.18685479202385
ONEWEB-0407             
1 50487U 21132U   26022.20548429  .00000070  00000+0  14580-3 0  9996
2 50487  87.9197   4.4260 0001670  81.7735 278.3587 13.18686442202320
ONEWEB-0409             
1 50488U 21132V   26022.06890655  .00000473  00000+0  12976-2 0  9995
2 50488  87.8835  50.1308 0002116 101.3950 258.7415 13.11416324196433
ONEWEB-0412             
1 50489U 21132W   26022.19393219 -.00000001  00000+0 -34715-4 0  9990
2 50489  87.9198   4.4420 0001820  74.5093 285.6240 13.18685731202412
ONEWEB-0413             
1 50490U 21132X   26022.19888217  .00000013  00000+0  52866-6 0  9999
2 50490  87.9189   4.4498 0001653  75.3573 284.7742 13.18687908202353
ONEWEB-0414             
1 50491U 21132Y   26022.18404089  .00000001  00000+0 -30978-4 0  9996
2 50491  87.9197   4.4203 0001924  79.5994 280.5355 13.18685858202380
ONEWEB-0417             
1 50492U 21132Z   26022.19228185  .00000063  00000+0  12665-3 0  9998
2 50492  87.9186   4.4504 0002011  87.7907 272.3455 13.18686345202366
ONEWEB-0418             
1 50493U 21132AA  26022.20205057  .00000044  00000+0  79526-4 0  9993
2 50493  87.9195   4.4342 0002243  91.5680 268.5710 13.18686376202427
ONEWEB-0419             
1 50494U 21132AB  26022.22032995  .00000016  00000+0  73377-5 0  9993
2 50494  87.9199   4.4306 0001927  94.4583 265.6770 13.18685893202342
